IRIDIUM 166             
1 43570U 18061B   23256.90738930  .00000360  00000+0  12131-3 0  9991
2 43570  86.3945 117.7457 0002109  80.0764 280.0670 14.34218002269022
IRIDIUM 158             
1 43571U 18061C   23257.15475469  .00000411  00000+0  13976-3 0  9990
2 43571  86.3943 117.6512 0001705  82.3207 277.8182 14.34218770269035
IRIDIUM 165             
1 43572U 18061D   23256.90105596  .00000393  00000+0  13319-3 0  9994
2 43572  86.3946 117.7847 0001657  82.4237 277.7147 14.34217478269013
IRIDIUM 155             
1 43573U 18061E   23256.86299834  .00000400  00000+0  13560-3 0  9996
2 43573  86.3942 117.7191 0002320  82.8448 277.3012 14.34219884268972
IRIDIUM 154             
1 43574U 18061F   23257.12303721 -.00000067  00000+0 -30854-4 0  9995
2 43574  86.3947 117.6942 0001940  91.3998 268.7420 14.34217266269063
IRIDIUM 163             
1 43575U 18061G   23257.10401181  .00000390  00000+0  13231-3 0  9999
2 43575  86.3943 117.6495 0001997  87.8745 272.2680 14.34220155269031
IRIDIUM 156             
1 43576U 18061H   23257.14840828  .00000401  00000+0  13611-3 0  9994
2 43576  86.3941 117.6367 0002050  78.3717 281.7709 14.34220366269023
IRIDIUM 164             
1 43577U 18061J   23256.85030328  .00000351  00000+0  11839-3 0  9992
2 43577  86.3944 117.7855 0001874  87.1275 273.0135 14.34216136269038
